start=new Date('2023-01-11T00:00:00.000Z').valueOf();
sats=[{"BSTAR":"0.00014855000000","DECAY_DATE":null,"CENTER_NAME":"EARTH","MEAN_MOTION_DDOT":"0.0000000000000","RA_OF_ASC_NODE":"226.4174","INCLINATION":"53.2168","ECCENTRICITY":"0.00024960","EPHEMERIS_TYPE":"0","MEAN_MOTION_DOT":"0.00002076","SITE":"AFETR","MEAN_MOTION":"15.08833397","REV_AT_EPOCH":"2871","NORAD_CAT_ID":"53025","MEAN_ELEMENT_THEORY":"SGP4","TLE_LINE2":"2 53025  53.2168 226.4174 0002496  39.5474 320.5700 15.08833397 28713","REF_FRAME":"TEME","MEAN_ANOMALY":"320.5700","EPOCH":"2023-01-10T06:59:41.483904","RCS_SIZE":"LARGE","TLE_LINE1":"1 53025U 22076AR  23010.29145236  .00002076  00000-0  14855-3 0  9991","ARG_OF_PERICENTER":"39.5474","CLASSIFICATION_TYPE":"U","COUNTRY_CODE":"US","LAUNCH_DATE":"2022-07-07","OBJECT_ID":"2022-076AR","SEMIMAJOR_AXIS":"6917.901","OBJECT_NAME":"STARLINK-4218","APOAPSIS":"541.492","PERIOD":"95.438","GP_ID":"222665739","FILE":"3739038","PERIAPSIS":"538.039","OBJECT_TYPE":"PAYLOAD","ELEMENT_SET_NO":"999","TIME_SYSTEM":"UTC"},{"CENTER_NAME":"EARTH","MEAN_MOTION_DDOT":"0.0000000000000","RA_OF_ASC_NODE":"224.8639","INCLINATION":"53.2162","ECCENTRICITY":"0.00028270","BSTAR":"-0.00006801100000","DECAY_DATE":null,"REF_FRAME":"TEME","TLE_LINE2":"2 53026  53.2162 224.8639 0002827  24.5778 335.5349 15.08833235 28766","MEAN_ANOMALY":"335.5349","EPOCH":"2023-01-10T15:17:48.707520","RCS_SIZE":"LARGE","EPHEMERIS_TYPE":"0","MEAN_MOTION_DOT":"-0.00001371","SITE":"AFETR","MEAN_MOTION":"15.08833235","REV_AT_EPOCH":"2876","NORAD_CAT_ID":"53026","MEAN_ELEMENT_THEORY":"SGP4","OBJECT_ID":"2022-076AS","SEMIMAJOR_AXIS":"6917.901","APOAPSIS":"541.722","OBJECT_NAME":"STARLINK-4119","TLE_LINE1":"1 53026U 22076AS  23010.63736930 -.00001371  00000-0 -68011-4 0  9990","ARG_OF_PERICENTER":"24.5778","COUNTRY_CODE":"US","CLASSIFICATION_TYPE":"U","LAUNCH_DATE":"2022-07-07","OBJECT_TYPE":"PAYLOAD","ELEMENT_SET_NO":"999","TIME_SYSTEM":"UTC","PERIOD":"95.438","GP_ID":"222723470","PERIAPSIS":"537.810","FILE":"3739267"},{"REF_FRAME":"TEME","TLE_LINE2":"2 53027  53.2167 224.6840 0001852  48.7538 311.3614 15.08837041 28770","MEAN_ANOMALY":"311.3614","RCS_SIZE":"LARGE","EPOCH":"2023-01-10T16:16:06.376512","EPHEMERIS_TYPE":"0","MEAN_MOTION_DOT":"0.00000733","SITE":"AFETR","MEAN_MOTION":"15.08837041","REV_AT_EPOCH":"2877","NORAD_CAT_ID":"53027","MEAN_ELEMENT_THEORY":"SGP4","CENTER_NAME":"EARTH","MEAN_MOTION_DDOT":"0.0000000000000","RA_OF_ASC_NODE":"224.6840","INCLINATION":"53.2167","ECCENTRICITY":"0.00018520","BSTAR":"0.00006412800000","DECAY_DATE":null,"ELEMENT_SET_NO":"999","OBJECT_TYPE":"PAYLOAD","TIME_SYSTEM":"UTC","PERIOD":"95.438","GP_ID":"222723477","PERIAPSIS":"538.473","FILE":"3739267","SEMIMAJOR_AXIS":"6917.889","OBJECT_ID":"2022-076AT","APOAPSIS":"541.036","OBJECT_NAME":"STARLINK-4158","TLE_LINE1":"1 53027U 22076AT  23010.67785158  .00000733  00000-0  64128-4 0  9995","ARG_OF_PERICENTER":"48.7538","COUNTRY_CODE":"US","CLASSIFICATION_TYPE":"U","LAUNCH_DATE":"2022-07-07"},{"NORAD_CAT_ID":"53029","MEAN_ELEMENT_THEORY":"SGP4","REV_AT_EPOCH":"2894","MEAN_MOTION":"15.08851276","SITE":"AFETR","EPHEMERIS_TYPE":"0","MEAN_MOTION_DOT":"-0.00004720","EPOCH":"2023-01-10T22:17:46.141728","RCS_SIZE":"LARGE","MEAN_ANOMALY":"295.0839","REF_FRAME":"TEME","TLE_LINE2":"2 53029  53.2134 213.5466 0001573  65.0317 295.0839 15.08851276 28946","DECAY_DATE":null,"BSTAR":"-0.00027853000000","ECCENTRICITY":"0.00015730","INCLINATION":"53.2134","RA_OF_ASC_NODE":"213.5466","MEAN_MOTION_DDOT":"0.0000000000000","CENTER_NAME":"EARTH","PERIAPSIS":"538.623","FILE":"3739267","GP_ID":"222723242","PERIOD":"95.437","TIME_SYSTEM":"UTC","OBJECT_TYPE":"PAYLOAD","ELEMENT_SET_NO":"999","LAUNCH_DATE":"2022-07-07","CLASSIFICATION_TYPE":"U","COUNTRY_CODE":"US","ARG_OF_PERICENTER":"65.0317","TLE_LINE1":"1 53029U 22076AV  23010.92900627 -.00004720  00000-0 -27853-3 0  9990","APOAPSIS":"540.799","OBJECT_NAME":"STARLINK-4143","OBJECT_ID":"2022-076AV","SEMIMAJOR_AXIS":"6917.846"},{"TLE_LINE2":"2 53030  53.2171 224.6436 0002111  45.1930 314.9234 15.08839881 28777","REF_FRAME":"TEME","MEAN_ANOMALY":"314.9234","EPOCH":"2023-01-10T16:26:42.638208","RCS_SIZE":"MEDIUM","MEAN_MOTION_DOT":"0.00001915","EPHEMERIS_TYPE":"0","SITE":"AFETR","MEAN_MOTION":"15.08839881","REV_AT_EPOCH":"2877","NORAD_CAT_ID":"53030","MEAN_ELEMENT_THEORY":"SGP4","CENTER_NAME":"EARTH","MEAN_MOTION_DDOT":"0.0000000000000","RA_OF_ASC_NODE":"224.6436","INCLINATION":"53.2171","ECCENTRICITY":"0.00021110","BSTAR":"0.00013840000000","DECAY_DATE":null,"ELEMENT_SET_NO":"999","OBJECT_TYPE":"PAYLOAD","TIME_SYSTEM":"UTC","PERIOD":"95.438","GP_ID":"222724377","FILE":"3739267","PERIAPSIS":"538.285","SEMIMAJOR_AXIS":"6917.881","OBJECT_ID":"2022-076AW","OBJECT_NAME":"STARLINK-4160","APOAPSIS":"541.206","TLE_LINE1":"1 53030U 22076AW  23010.68521572  .00001915  00000-0  13840-3 0  9995","ARG_OF_PERICENTER":"45.1930","COUNTRY_CODE":"US","CLASSIFICATION_TYPE":"U","LAUNCH_DATE":"2022-07-07"},{"GP_ID":"222665755","PERIOD":"95.436","PERIAPSIS":"538.299","FILE":"3739038","ELEMENT_SET_NO":"999","OBJECT_TYPE":"PAYLOAD","TIME_SYSTEM":"UTC","ARG_OF_PERICENTER":"49.5102","TLE_LINE1":"1 53031U 22076AX  23010.58676357 -.00006111  00000-0 -36597-3 0  9996","LAUNCH_DATE":"2022-07-07","COUNTRY_CODE":"US","CLASSIFICATION_TYPE":"U","OBJECT_NAME":"STARLINK-4137","APOAPSIS":"541.072","SEMIMAJOR_AXIS":"6917.820","OBJECT_ID":"2022-076AX","MEAN_MOTION":"15.08859678","SITE":"AFETR","EPHEMERIS_TYPE":"0","MEAN_MOTION_DOT":"-0.00006111","NORAD_CAT_ID":"53031","MEAN_ELEMENT_THEORY":"SGP4","REV_AT_EPOCH":"2889","EPOCH":"2023-01-10T14:04:56.372448","RCS_SIZE":"LARGE","MEAN_ANOMALY":"310.6064","TLE_LINE2":"2 53031  53.2157 215.0993 0002004  49.5102 310.6064 15.08859678 28897","REF_FRAME":"TEME","DECAY_DATE":null,"BSTAR":"-0.00036597000000","MEAN_MOTION_DDOT":"0.0000000000000","CENTER_NAME":"EARTH","ECCENTRICITY":"0.00020040","INCLINATION":"53.2157","RA_OF_ASC_NODE":"215.0993"},{"REF_FRAME":"TEME","TLE_LINE2":"2 53032  53.2181 226.4432 0001790  36.9793 323.1322 15.08842794 28714","EPOCH":"2023-01-10T06:49:05.003616","RCS_SIZE":"LARGE","MEAN_ANOMALY":"323.1322","REV_AT_EPOCH":"2871","MEAN_ELEMENT_THEORY":"SGP4","NORAD_CAT_ID":"53032","SITE":"AFETR","EPHEMERIS_TYPE":"0","MEAN_MOTION_DOT":"0.00001319","MEAN_MOTION":"15.08842794","RA_OF_ASC_NODE":"226.4432","ECCENTRICITY":"0.00017900","INCLINATION":"53.2181","MEAN_MOTION_DDOT":"0.0000000000000","CENTER_NAME":"EARTH","BSTAR":"0.00010096000000","DECAY_DATE":null,"TIME_SYSTEM":"UTC","OBJECT_TYPE":"PAYLOAD","ELEMENT_SET_NO":"999","PERIAPSIS":"538.499","FILE":"3739038","PERIOD":"95.437","GP_ID":"222665983","APOAPSIS":"540.975","OBJECT_NAME":"STARLINK-4115","OBJECT_ID":"2022-076AY","SEMIMAJOR_AXIS":"6917.872","LAUNCH_DATE":"2022-07-07","COUNTRY_CODE":"US","CLASSIFICATION_TYPE":"U","ARG_OF_PERICENTER":"36.9793","TLE_LINE1":"1 53032U 22076AY  23010.28408569  .00001319  00000-0  10096-3 0  9991"},{"REF_FRAME":"TEME","TLE_LINE2":"2 53033  53.2181 214.7821 0001822  26.4480 333.6605 15.08826437 28907","RCS_SIZE":"LARGE","EPOCH":"2023-01-10T15:45:38.454048","MEAN_ANOMALY":"333.6605","SITE":"AFETR","MEAN_MOTION_DOT":"0.00005603","EPHEMERIS_TYPE":"0","MEAN_MOTION":"15.08826437","REV_AT_EPOCH":"2890","NORAD_CAT_ID":"53033","MEAN_ELEMENT_THEORY":"SGP4","MEAN_MOTION_DDOT":"0.0000000000000","CENTER_NAME":"EARTH","RA_OF_ASC_NODE":"214.7821","ECCENTRICITY":"0.00018220","INCLINATION":"53.2181","BSTAR":"0.00036998000000","DECAY_DATE":null,"ELEMENT_SET_NO":"999","OBJECT_TYPE":"PAYLOAD","TIME_SYSTEM":"UTC","PERIOD":"95.438","GP_ID":"222723705","FILE":"3739267","PERIAPSIS":"538.526","OBJECT_NAME":"STARLINK-4167","APOAPSIS":"541.047","OBJECT_ID":"2022-076AZ","SEMIMAJOR_AXIS":"6917.922","ARG_OF_PERICENTER":"26.4480","TLE_LINE1":"1 53033U 22076AZ  23010.65669507  .00005603  00000-0  36998-3 0  9993","LAUNCH_DATE":"2022-07-07","CLASSIFICATION_TYPE":"U","COUNTRY_CODE":"US"},{"NORAD_CAT_ID":"53034","MEAN_ELEMENT_THEORY":"SGP4","REV_AT_EPOCH":"2920","MEAN_MOTION":"15.08829065","SITE":"AFETR","MEAN_MOTION_DOT":"0.00000733","EPHEMERIS_TYPE":"0","RCS_SIZE":"LARGE","EPOCH":"2023-01-09T14:24:46.528128","MEAN_ANOMALY":"314.6114","TLE_LINE2":"2 53034  53.2160 219.5073 0002040  45.5044 314.6114 15.08829065 29206","REF_FRAME":"TEME","DECAY_DATE":null,"BSTAR":"0.00006419500000","ECCENTRICITY":"0.00020400","INCLINATION":"53.2160","RA_OF_ASC_NODE":"219.5073","MEAN_MOTION_DDOT":"0.0000000000000","CENTER_NAME":"EARTH","FILE":"3738528","PERIAPSIS":"538.368","GP_ID":"222628080","PERIOD":"95.438","TIME_SYSTEM":"UTC","ELEMENT_SET_NO":"999","OBJECT_TYPE":"PAYLOAD","LAUNCH_DATE":"2022-07-07","COUNTRY_CODE":"US","CLASSIFICATION_TYPE":"U","ARG_OF_PERICENTER":"45.5044","TLE_LINE1":"1 53034U 22076BA  23009.60053852  .00000733  00000-0  64195-4 0  9997","OBJECT_NAME":"STARLINK-4151","APOAPSIS":"541.190","SEMIMAJOR_AXIS":"6917.914","OBJECT_ID":"2022-076BA"},{"ARG_OF_PERICENTER":"43.9816","TLE_LINE1":"1 53035U 22076BB  23010.71557899  .00002272  00000-0  16086-3 0  9997","LAUNCH_DATE":"2022-07-07","CLASSIFICATION_TYPE":"U","COUNTRY_CODE":"US","OBJECT_NAME":"STARLINK-4157","APOAPSIS":"541.315","OBJECT_ID":"2022-076BB","SEMIMAJOR_AXIS":"6917.902","PERIOD":"95.438","GP_ID":"222723471","FILE":"3739267","PERIAPSIS":"538.219","OBJECT_TYPE":"PAYLOAD","ELEMENT_SET_NO":"999","TIME_SYSTEM":"UTC","BSTAR":"0.00016086000000","DECAY_DATE":null,"MEAN_MOTION_DDOT":"0.0000000000000","CENTER_NAME":"EARTH","RA_OF_ASC_NODE":"214.5244","ECCENTRICITY":"0.00022380","INCLINATION":"53.2158","SITE":"AFETR","MEAN_MOTION_DOT":"0.00002272","EPHEMERIS_TYPE":"0","MEAN_MOTION":"15.08832919","REV_AT_EPOCH":"2891","NORAD_CAT_ID":"53035","MEAN_ELEMENT_THEORY":"SGP4","REF_FRAME":"TEME","TLE_LINE2":"2 53035  53.2158 214.5244 0002238  43.9816 316.1354 15.08832919 28919","EPOCH":"2023-01-10T17:10:26.024736","RCS_SIZE":"MEDIUM","MEAN_ANOMALY":"316.1354"}];
